{
  "type": "FeatureCollection",
  "features": [
    {
      "type": "Feature",
      "properties": {
        "norad_id": 66877,
        "name": "ZQ-3 R/B",
        "group": "last-30-days",
        "lat": -29.593668613473525,
        "lon": -133.29661894374757,
        "alt_km": 170.10798981606513,
        "timestamp": "2025-12-21T03:56:49.616925+00:00",
        "meta_object_name": "ZQ-3 R/B",
        "meta_object_id": "2025-282A",
        "meta_epoch": "2025-12-20T07:25:11.913024",
        "meta_mean_motion": 14.74860688,
        "meta_eccentricity": 0.07154631,
        "meta_inclination": 56.9493,
        "meta_ra_of_asc_node": 28.3554,
        "meta_arg_of_pericenter": 233.2383,
        "meta_mean_anomaly": 120.0902,
        "meta_ephemeris_type": 0,
        "meta_classification_type": "U",
        "meta_norad_cat_id": 66877,
        "meta_element_set_no": 999,
        "meta_rev_at_epoch": 250,
        "meta_bstar": 0.00016912558,
        "meta_mean_motion_dot": 0.0093684,
        "meta_mean_motion_ddot": 7.752874e-06,
        "tle_line1": "1 66877U 25282A   25354.30916566  .00936840  77529-5  16913-3 0  9996",
        "tle_line2": "2 66877  56.9493  28.3554 0715463 233.2383 120.0902 14.74860688  2502"
      },
      "geometry": {
        "type": "Point",
        "coordinates": [
          -133.29661894374757,
          -29.593668613473525
        ]
      }
    },
    {
      "type": "Feature",
      "properties": {
        "norad_id": 66878,
        "name": "STARLINK-35866",
        "group": "last-30-days",
        "lat": 7.243226601582675,
        "lon": 37.075326620688564,
        "alt_km": 346.8290616422728,
        "timestamp": "2025-12-21T03:56:49.616937+00:00",
        "meta_object_name": "STARLINK-35866",
        "meta_object_id": "2025-283A",
        "meta_epoch": "2025-12-20T20:00:01.999008",
        "meta_mean_motion": 15.74203334,
        "meta_eccentricity": 8.11e-05,
        "meta_inclination": 53.158,
        "meta_ra_of_asc_node": 33.2507,
        "meta_arg_of_pericenter": 88.265,
        "meta_mean_anomaly": 203.4157,
        "meta_ephemeris_type": 0,
        "meta_classification_type": "U",
        "meta_norad_cat_id": 66878,
        "meta_element_set_no": 999,
        "meta_rev_at_epoch": 372,
        "meta_bstar": -0.00036527,
        "meta_mean_motion_dot": -0.00053815,
        "meta_mean_motion_ddot": 0,
        "tle_line1": "1 66878U 25283A   25354.83335647 -.00053815  00000+0 -36527-3 0  9992",
        "tle_line2": "2 66878  53.1580  33.2507 0000811  88.2650 203.4157 15.74203334  3724"
      },
      "geometry": {
        "type": "Point",
        "coordinates": [
          37.075326620688564,
          7.243226601582675
        ]
      }
    },
    {
      "type": "Feature",
      "properties": {
        "norad_id": 66879,
        "name": "STARLINK-35749",
        "group": "last-30-days",
        "lat": 10.291139717504702,
        "lon": 39.42320736557826,
        "alt_km": 346.2806039158204,
        "timestamp": "2025-12-21T03:56:49.616946+00:00",
        "meta_object_name": "STARLINK-35749",
        "meta_object_id": "2025-283B",
        "meta_epoch": "2025-12-20T20:00:01.999008",
        "meta_mean_motion": 15.74225848,
        "meta_eccentricity": 0.0001224,
        "meta_inclination": 53.1581,
        "meta_ra_of_asc_node": 33.2424,
        "meta_arg_of_pericenter": 88.1552,
        "meta_mean_anomaly": 207.3512,
        "meta_ephemeris_type": 0,
        "meta_classification_type": "U",
        "meta_norad_cat_id": 66879,
        "meta_element_set_no": 999,
        "meta_rev_at_epoch": 372,
        "meta_bstar": -0.00061464,
        "meta_mean_motion_dot": -0.00089835,
        "meta_mean_motion_ddot": 0,
        "tle_line1": "1 66879U 25283B   25354.83335647 -.00089835  00000+0 -61464-3 0  9992",
        "tle_line2": "2 66879  53.1581  33.2424 0001224  88.1552 207.3512 15.74225848  3725"
      },
      "geometry": {
        "type": "Point",
        "coordinates": [
          39.42320736557826,
          10.291139717504702
        ]
      }
    },
    {
      "type": "Feature",
      "properties": {
        "norad_id": 66880,
        "name": "STARLINK-35844",
        "group": "last-30-days",
        "lat": 8.777458544040531,
        "lon": 38.25127141470653,
        "alt_km": 346.60731764674074,
        "timestamp": "2025-12-21T03:56:49.616955+00:00",
        "meta_object_name": "STARLINK-35844",
        "meta_object_id": "2025-283C",
        "meta_epoch": "2025-12-20T20:00:01.999008",
        "meta_mean_motion": 15.7421206,
        "meta_eccentricity": 8.58e-05,
        "meta_inclination": 53.1583,
        "meta_ra_of_asc_node": 33.2469,
        "meta_arg_of_pericenter": 89.6435,
        "meta_mean_anomaly": 203.9624,
        "meta_ephemeris_type": 0,
        "meta_classification_type": "U",
        "meta_norad_cat_id": 66880,
        "meta_element_set_no": 999,
        "meta_rev_at_epoch": 372,
        "meta_bstar": -0.00049643,
        "meta_mean_motion_dot": -0.00072777,
        "meta_mean_motion_ddot": 0,
        "tle_line1": "1 66880U 25283C   25354.83335647 -.00072777  00000+0 -49643-3 0  9996",
        "tle_line2": "2 66880  53.1583  33.2469 0000858  89.6435 203.9624 15.74212060  3724"
      },
      "geometry": {
        "type": "Point",
        "coordinates": [
          38.25127141470653,
          8.777458544040531
        ]
      }
    },
    {
      "type": "Feature",
      "properties": {
        "norad_id": 66881,
        "name": "STARLINK-35860",
        "group": "last-30-days",
        "lat": 11.8135361777096,
        "lon": 40.61704094534312,
        "alt_km": 346.0061377490065,
        "timestamp": "2025-12-21T03:56:49.616964+00:00",
        "meta_object_name": "STARLINK-35860",
        "meta_object_id": "2025-283D",
        "meta_epoch": "2025-12-20T20:00:01.999008",
        "meta_mean_motion": 15.74227654,
        "meta_eccentricity": 0.0001163,
        "meta_inclination": 53.1581,
        "meta_ra_of_asc_node": 33.2382,
        "meta_arg_of_pericenter": 87.0052,
        "meta_mean_anomaly": 210.4183,
        "meta_ephemeris_type": 0,
        "meta_classification_type": "U",
        "meta_norad_cat_id": 66881,
        "meta_element_set_no": 999,
        "meta_rev_at_epoch": 372,
        "meta_bstar": -0.00057368,
        "meta_mean_motion_dot": -0.00083954,
        "meta_mean_motion_ddot": 0,
        "tle_line1": "1 66881U 25283D   25354.83335647 -.00083954  00000+0 -57368-3 0  9999",
        "tle_line2": "2 66881  53.1581  33.2382 0001163  87.0052 210.4183 15.74227654  3722"
      },
      "geometry": {
        "type": "Point",
        "coordinates": [
          40.61704094534312,
          11.8135361777096
        ]
      }
    },
    {
      "type": "Feature",
      "properties": {
        "norad_id": 66882,
        "name": "STARLINK-35912",
        "group": "last-30-days",
        "lat": 13.32722970343256,
        "lon": 41.8224826900635,
        "alt_km": 345.76209541644494,
        "timestamp": "2025-12-21T03:56:49.616973+00:00",
        "meta_object_name": "STARLINK-35912",
        "meta_object_id": "2025-283E",
        "meta_epoch": "2025-12-20T20:00:01.999008",
        "meta_mean_motion": 15.74229036,
        "meta_eccentricity": 9.53e-05,
        "meta_inclination": 53.158,
        "meta_ra_of_asc_node": 33.2351,
        "meta_arg_of_pericenter": 79.7623,
        "meta_mean_anomaly": 219.5827,
        "meta_ephemeris_type": 0,
        "meta_classification_type": "U",
        "meta_norad_cat_id": 66882,
        "meta_element_set_no": 999,
        "meta_rev_at_epoch": 372,
        "meta_bstar": -0.00071621,
        "meta_mean_motion_dot": -0.00104409,
        "meta_mean_motion_ddot": 0,
        "tle_line1": "1 66882U 25283E   25354.83335647 -.00104409  00000+0 -71621-3 0  9997",
        "tle_line2": "2 66882  53.1580  33.2351 0000953  79.7623 219.5827 15.74229036  3727"
      },
      "geometry": {
        "type": "Point",
        "coordinates": [
          41.8224826900635,
          13.32722970343256
        ]
      }
    },
    {
      "type": "Feature",
      "properties": {
        "norad_id": 66883,
        "name": "STARLINK-35947",
        "group": "last-30-days",
        "lat": 14.830902125336186,
        "lon": 43.03891860247003,
        "alt_km": 345.42591285042,
        "timestamp": "2025-12-21T03:56:49.616983+00:00",
        "meta_object_name": "STARLINK-35947",
        "meta_object_id": "2025-283F",
        "meta_epoch": "2025-12-20T20:00:01.999008",
        "meta_mean_motion": 15.74229349,
        "meta_eccentricity": 0.0001083,
        "meta_inclination": 53.1582,
        "meta_ra_of_asc_node": 33.2314,
        "meta_arg_of_pericenter": 79.5134,
        "meta_mean_anomaly": 221.7367,
        "meta_ephemeris_type": 0,
        "meta_classification_type": "U",
        "meta_norad_cat_id": 66883,
        "meta_element_set_no": 999,
        "meta_rev_at_epoch": 377,
        "meta_bstar": -0.00057993,
        "meta_mean_motion_dot": -0.00084858,
        "meta_mean_motion_ddot": 0,
        "tle_line1": "1 66883U 25283F   25354.83335647 -.00084858  00000+0 -57993-3 0  9999",
        "tle_line2": "2 66883  53.1582  33.2314 0001083  79.5134 221.7367 15.74229349  3775"
      },
      "geometry": {
        "type": "Point",
        "coordinates": [
          43.03891860247003,
          14.830902125336186
        ]
      }
    }
  ]
}